NORAD_CAT_ID,OBJECT_NAME,OBJECT_TYPE,EPOCH,MEAN_MOTION,ECCENTRICITY,INCLINATION,RA_OF_ASC_NODE,ARG_OF_PERICENTER,MEAN_ANOMALY,BSTAR,MEAN_MOTION_DOT,MEAN_MOTION_DDOT,TLE_LINE0,TLE_LINE1,TLE_LINE2,SEMIMAJOR_AXIS,PERIOD,APOGEE,PERIGEE,DECAYED
56494.0,STARLINK-5530,PAYLOAD,2023-08-28 14:59:14,15.69941809,0.0003635,69.9976,296.2959,264.4864,95.5917,2.3269e-05,2.588e-05,0.0,0 STARLINK-5530,1 56494U 23064AY  23240.62446774  .00002588  00000-0  23269-4 0  9993,2 56494  69.9976 296.2959 0003635 264.4864  95.5917 15.69941809 17623,6737.2,91.723,361.514,356.617,0.0
56494.0,STARLINK-5530,PAYLOAD,2023-08-28 21:06:14,15.69937766,0.0003347,69.9999,295.5773,266.285,93.7963,1.7332e-05,1.873e-05,0.0,0 STARLINK-5530,1 56494U 23064AY  23240.87933778  .00001873  00000-0  17332-4 0  9995,2 56494  69.9999 295.5773 0003347 266.2850  93.7963 15.69937766 17313,6737.212,91.723,361.332,356.822,0.0
56494.0,STARLINK-5530,PAYLOAD,2023-08-29 06:16:46,15.69915481,0.0003367,69.9969,294.503,274.1218,85.9593,-3.8797e-06,-6.79e-06,0.0,0 STARLINK-5530,1 56494U 23064AY  23241.26165388 -.00000679  00000-0 -38797-5 0  9997,2 56494  69.9969 294.5030 0003367 274.1218  85.9593 15.69915481 17720,6737.276,91.725,361.409,356.872,0.0
56494.0,STARLINK-5530,PAYLOAD,2023-08-29 12:23:47,15.69920107,0.0003049,69.9969,293.7869,269.9069,90.1778,9.6843e-07,-9.6e-07,0.0,0 STARLINK-5530,1 56494U 23064AY  23241.51651737 -.00000096  00000-0  96843-6 0  9992,2 56494  69.9969 293.7869 0003049 269.9069  90.1778 15.69920107 17762,6737.263,91.724,361.182,357.073,0.0
56494.0,STARLINK-5530,PAYLOAD,2023-08-30 06:44:48,15.69927403,0.0003183,69.9965,291.6369,265.2031,94.8801,6.239e-06,5.38e-06,0.0,0 STARLINK-5530,1 56494U 23064AY  23242.28111399  .00000538  00000-0  62390-5 0  9991,2 56494  69.9965 291.6369 0003183 265.2031  94.8801 15.69927403 17884,6737.242,91.724,361.251,356.962,0.0
56494.0,STARLINK-5530,PAYLOAD,2023-08-30 15:55:18,15.69940272,0.0003628,69.9967,290.5611,258.2827,101.7962,-1.54e-06,-3.98e-06,0.0,0 STARLINK-5530,1 56494U 23064AY  23242.66340645 -.00000398  00000-0 -15400-5 0  9997,2 56494  69.9967 290.5611 0003628 258.2827 101.7962 15.69940272 17945,6737.205,91.723,361.514,356.626,0.0
56494.0,STARLINK-5530,PAYLOAD,2023-08-30 20:30:33,15.69937114,0.0003493,69.9969,290.0233,258.0494,102.031,3.934e-06,2.6e-06,0.0,0 STARLINK-5530,1 56494U 23064AY  23242.85455585  .00000260  00000-0  39340-5 0  9993,2 56494  69.9969 290.0233 0003493 258.0494 102.0310 15.69937114 17627,6737.214,91.723,361.432,356.726,0.0
56494.0,STARLINK-5530,PAYLOAD,2023-09-01 09:12:37,15.69925777,0.0002317,69.9972,285.7267,269.8709,90.2221,1.0954e-05,1.105e-05,0.0,0 STARLINK-5530,1 56494U 23064AY  23244.38376361  .00001105  00000-0  10954-4 0  9995,2 56494  69.9972 285.7267 0002317 269.8709  90.2221 15.69925777 18219,6737.246,91.724,360.672,357.55,0.0
56494.0,STARLINK-5530,PAYLOAD,2023-09-01 19:54:54,15.69899524,0.0002434,69.9957,284.471,271.3076,88.7841,3.1159e-05,3.532e-05,0.0,0 STARLINK-5530,1 56494U 23064AY  23244.82979406  .00003532  00000-0  31159-4 0  9999,2 56494  69.9957 284.4710 0002434 271.3076  88.7841 15.69899524 18283,6737.321,91.726,360.826,357.547,0.0
56494.0,STARLINK-5530,PAYLOAD,2023-09-02 02:01:54,15.69916121,0.0003527,69.9963,283.7553,263.0766,97.0028,3.4213e-06,1.98e-06,0.0,0 STARLINK-5530,1 56494U 23064AY  23245.08465278  .00000198  00000-0  34213-5 0  9995,2 56494  69.9963 283.7553 0003527 263.0766  97.0028 15.69916121 18323,6737.274,91.725,361.515,356.763,0.0
56494.0,STARLINK-5530,PAYLOAD,2023-09-02 12:44:10,15.69916737,0.0002678,69.9982,282.4989,268.1858,91.9031,3.4145e-06,1.98e-06,0.0,0 STARLINK-5530,1 56494U 23064AY  23245.53067169  .00000198  00000-0  34145-5 0  9996,2 56494  69.9982 282.4989 0002678 268.1858  91.9031 15.69916737 18046,6737.272,91.725,360.941,357.333,0.0
56494.0,STARLINK-5530,PAYLOAD,2023-09-02 14:15:54,15.69926043,0.0003205,69.9966,282.3203,263.4327,96.6504,2.0032e-05,2.197e-05,0.0,0 STARLINK-5530,1 56494U 23064AY  23245.59437595  .00002197  00000-0  20032-4 0  9996,2 56494  69.9966 282.3203 0003205 263.4327  96.6504 15.69926043 18400,6737.246,91.724,361.27,356.951,0.0
56494.0,STARLINK-5530,PAYLOAD,2023-09-03 08:36:57,15.69903648,0.0002738,69.9978,280.17,268.5922,91.496,-1.315e-05,-1.792e-05,0.0,0 STARLINK-5530,1 56494U 23064AY  23246.35900133 -.00001792  00000-0 -13150-4 0  9999,2 56494  69.9978 280.1700 0002738 268.5922  91.4960 15.69903648 18526,6737.31,91.725,361.019,357.33,0.0
56494.0,STARLINK-5530,PAYLOAD,2023-09-03 11:40:27,15.69912722,0.0003363,69.9997,279.8142,272.3373,87.7437,-2.3976e-05,-3.093e-05,0.0,0 STARLINK-5530,1 56494U 23064AY  23246.48643075 -.00003093  00000-0 -23976-4 0  9995,2 56494  69.9997 279.8142 0003363 272.3373  87.7437 15.69912722 18542,6737.284,91.725,361.414,356.883,0.0
56494.0,STARLINK-5530,PAYLOAD,2023-09-03 19:19:12,15.69918304,0.0003195,69.9991,278.918,274.885,85.1981,-5.6133e-07,-2.8e-06,0.0,0 STARLINK-5530,1 56494U 23064AY  23246.80500731 -.00000280  00000-0 -56133-6 0  9990,2 56494  69.9991 278.9180 0003195 274.8850  85.1981 15.69918304 18591,6737.268,91.725,361.285,356.98,0.0
56494.0,STARLINK-5530,PAYLOAD,2023-09-04 12:08:28,15.69927191,0.0003319,69.9993,276.9477,270.025,90.0565,1.2863e-05,1.334e-05,0.0,0 STARLINK-5530,1 56494U 23064AY  23247.50588458  .00001334  00000-0  12863-4 0  9999,2 56494  69.9993 276.9477 0003319 270.0250  90.0565 15.69927191 18351,6737.242,91.724,361.343,356.871,0.0
56494.0,STARLINK-5530,PAYLOAD,2023-09-04 19:47:14,15.69930878,0.0003127,69.9989,276.0519,272.8541,87.2297,6.822e-08,-2.04e-06,0.0,0 STARLINK-5530,1 56494U 23064AY  23247.82446917 -.00000204  00000-0  68220-7 0  9994,2 56494  69.9989 276.0519 0003127 272.8541  87.2297 15.69930878 18754,6737.232,91.724,361.203,356.99,0.0
56494.0,STARLINK-5530,PAYLOAD,2023-09-05 18:43:30,15.69944571,0.0003392,69.998,273.3644,270.7636,89.3171,-3.4044e-05,-4.308e-05,0.0,0 STARLINK-5530,1 56494U 23064AY  23248.78021532 -.00004308  00000-0 -34044-4 0  9996,2 56494  69.9980 273.3644 0003392 270.7636  89.3171 15.69944571 18557,6737.193,91.723,361.343,356.772,0.0
56494.0,STARLINK-5530,PAYLOAD,2023-09-06 13:04:32,15.69923618,0.0003264,69.9981,271.2147,271.4001,88.6821,6.7545e-06,5.99e-06,0.0,0 STARLINK-5530,1 56494U 23064AY  23249.54482446  .00000599  00000-0  67545-5 0  9995,2 56494  69.9981 271.2147 0003264 271.4001  88.6821 15.69923618 19021,6737.253,91.724,361.317,356.918,0.0
56494.0,STARLINK-5530,PAYLOAD,2023-09-07 08:57:19,15.69921217,0.0003405,69.9985,268.8852,274.555,85.5257,1.6055e-05,1.718e-05,0.0,0 STARLINK-5530,1 56494U 23064AY  23250.37314191  .00001718  00000-0  16055-4 0  9992,2 56494  69.9985 268.8852 0003405 274.5550  85.5257 15.69921217 18807,6737.259,91.724,361.418,356.83,0.0
56494.0,STARLINK-5530,PAYLOAD,2023-09-07 13:32:34,15.69921011,0.0003365,69.9989,268.3468,269.3395,90.7415,2.0789e-05,2.287e-05,0.0,0 STARLINK-5530,1 56494U 23064AY  23250.56429064  .00002287  00000-0  20789-4 0  9990,2 56494  69.9989 268.3468 0003365 269.3395  90.7415 15.69921011 19181,6737.26,91.724,361.392,356.858,0.0
56494.0,STARLINK-5530,PAYLOAD,2023-09-08 03:18:20,15.69938304,0.0003166,69.9989,266.7354,270.5696,89.5137,-2.147e-06,-4.71e-06,0.0,0 STARLINK-5530,1 56494U 23064AY  23251.13773417 -.00000471  00000-0 -21470-5 0  9992,2 56494  69.9989 266.7354 0003166 270.5696  89.5137 15.69938304 19274,6737.211,91.723,361.209,356.943,0.0
56494.0,STARLINK-5530,PAYLOAD,2023-09-08 10:57:06,15.69917501,0.0003239,69.9986,265.8403,271.2038,88.8787,6.3113e-06,5.46e-06,0.0,0 STARLINK-5530,1 56494U 23064AY  23251.45633063  .00000546  00000-0  63113-5 0  9990,2 56494  69.9986 265.8403 0003239 271.2038  88.8787 15.69917501 19320,6737.27,91.725,361.317,356.953,0.0
56494.0,STARLINK-5530,PAYLOAD,2023-09-08 12:28:52,15.69919645,0.0002778,69.9988,265.6646,269.7488,90.3389,4.729e-06,3.56e-06,0.0,0 STARLINK-5530,1 56494U 23064AY  23251.52004923  .00000356  00000-0  47290-5 0  9992,2 56494  69.9988 265.6646 0002778 269.7488  90.3389 15.69919645 18985,6737.264,91.724,361.001,357.257,0.0
56494.0,STARLINK-5530,PAYLOAD,2023-09-09 02:14:37,15.69929809,0.0003215,69.9987,264.0487,274.7975,85.2853,8.7002e-06,8.34e-06,0.0,0 STARLINK-5530,1 56494U 23064AY  23252.09349163  .00000834  00000-0  87002-5 0  9999,2 56494  69.9987 264.0487 0003215 274.7975  85.2853 15.69929809 19426,6737.235,91.724,361.266,356.934,0.0
56494.0,STARLINK-5530,PAYLOAD,2023-09-09 11:25:08,15.69928633,0.0003214,69.998,262.9746,275.2872,84.7957,6.3651e-06,5.53e-06,0.0,0 STARLINK-5530,1 56494U 23064AY  23252.47579215  .00000553  00000-0  63651-5 0  9996,2 56494  69.9980 262.9746 0003214 275.2872  84.7957 15.69928633 19136,6737.238,91.724,361.269,356.938,0.0
56494.0,STARLINK-5530,PAYLOAD,2023-09-10 10:21:26,15.69904095,0.0002633,69.9994,260.2877,259.2163,100.8736,8.5436e-07,-1.1e-06,0.0,0 STARLINK-5530,1 56494U 23064AY  23253.43155898 -.00000110  00000-0  85436-6 0  9996,2 56494  69.9994 260.2877 0002633 259.2163 100.8736 15.69904095 19632,6737.308,91.725,360.947,357.399,0.0
56494.0,STARLINK-5530,PAYLOAD,2023-09-10 18:00:11,15.69924648,0.0003314,69.9976,259.3909,268.4537,91.6279,7.5932e-06,7e-06,0.0,0 STARLINK-5530,1 56494U 23064AY  23253.75012917  .00000700  00000-0  75932-5 0  9998,2 56494  69.9976 259.3909 0003314 268.4537  91.6279 15.69924648 19681,6737.25,91.724,361.347,356.882,0.0
56494.0,STARLINK-5530,PAYLOAD,2023-09-11 03:10:41,15.6993354,0.0003336,69.9987,258.3173,269.4875,90.5939,2.2704e-05,2.519e-05,0.0,0 STARLINK-5530,1 56494U 23064AY  23254.13242101  .00002519  00000-0  22704-4 0  9999,2 56494  69.9987 258.3173 0003336 269.4875  90.5939 15.69933540 19744,6737.224,91.724,361.337,356.842,0.0
56494.0,STARLINK-5530,PAYLOAD,2023-09-11 09:17:42,15.69926834,0.0003175,69.9994,257.6005,266.3203,93.763,2.1416e-05,2.363e-05,0.0,0 STARLINK-5530,1 56494U 23064AY  23254.38729218  .00002363  00000-0  21416-4 0  9991,2 56494  69.9994 257.6005 0003175 266.3203  93.7630 15.69926834 19785,6737.243,91.724,361.247,356.969,0.0
